CSS (TIANHE)            
1 48274U 21035A   23267.41485746  .00021664  00000+0  23635-3 0  9995
2 48274  41.4732 272.1539 0007991  98.3738 261.8007 15.62816435137344
